[{"OBJECT_NAME":"STARLINK-34307","OBJECT_ID":"2025-133T","EPOCH":"2026-03-09T12:54:58.053888","MEAN_MOTION":15.30198679,"ECCENTRICITY":0.00011917,"INCLINATION":53.1581,"RA_OF_ASC_NODE":117.6085,"ARG_OF_PERICENTER":76.4205,"MEAN_ANOMALY":283.6928,"EPHEMERIS_TYPE":0,"CLASSIFICATION_TYPE":"U","NORAD_CAT_ID":64489,"ELEMENT_SET_NO":999,"REV_AT_EPOCH":4114,"BSTAR":0.00096344423,"MEAN_MOTION_DOT":0.00028283,"MEAN_MOTION_DDOT":0},{"OBJECT_NAME":"CZ-4 DEB","OBJECT_ID":"2006-046L","EPOCH":"2026-03-09T05:26:57.251328","MEAN_MOTION":15.20206122,"ECCENTRICITY":0.00567956,"INCLINATION":97.8211,"RA_OF_ASC_NODE":163.0679,"ARG_OF_PERICENTER":229.3561,"MEAN_ANOMALY":130.2727,"EPHEMERIS_TYPE":0,"CLASSIFICATION_TYPE":"U","NORAD_CAT_ID":35378,"ELEMENT_SET_NO":999,"REV_AT_EPOCH":2541,"BSTAR":0.0021311714,"MEAN_MOTION_DOT":0.00048409,"MEAN_MOTION_DDOT":0}]
